STARLINK-30982          
1 58512U 23191E   26068.47114459  .00018644  00000+0  68716-3 0  9997
2 58512  42.9984 105.0294 0001071 306.8199  53.2554 15.27490960125437
TRANSPORTER-13 OBJECT AH
1 63241U 25052AH  26068.64880921  .00014108  00000+0  55931-3 0  9999
2 63241  97.3962 323.1443 0008070 138.7508 221.4341 15.25468797 54753
